STARLINK-2102           
1 47382U 21005AK  26068.28659349  .00014749  00000+0  50861-3 0  9997
2 47382  53.1615  28.4239 0001232  80.6038 279.5102 15.30231467283470
STARLINK-31630          
1 59271U 24050T   26068.56880718 -.00002063  00000+0 -57526-4 0  9991
2 59271  53.1600 168.5079 0001409  92.3163 267.7999 15.30200807110710
